STARLINK-11682 [DTC]    
1 64234U 25119B   26058.99091535  .00209432  00000+0  15909-2 0  9994
2 64234  43.0021 268.0881 0002698 270.2492  89.8067 15.70898524 43717
STARLINK-11675 [DTC]    
1 64235U 25119C   26059.27698685  .00266402  00000+0  20081-2 0  9993
2 64235  42.9998 265.9151 0000745   5.5080 354.5796 15.70907382 43767
STARLINK-11691 [DTC]    
1 64236U 25119D   26059.26104810  .00297665  00000+0  22315-2 0  9992
2 64236  42.9993 265.7856 0002697 285.2995  74.7575 15.70942257 43769
STARLINK-11670 [DTC]    
1 64237U 25119E   26058.97499574  .00335580  00000+0  25018-2 0  9996
2 64237  42.9990 267.9580 0001995 268.6925  91.3714 15.70961215 43713
STARLINK-11708 [DTC]    
1 64238U 25119F   26058.98030046  .00258075  00000+0  19481-2 0  9993
2 64238  43.0001 267.9999 0001627 273.1328  86.9353 15.70898984 43714
STARLINK-11683 [DTC]    
1 64239U 25119G   26058.99608693  .00262618  00000+0  19737-2 0  9996
2 64239  43.0024 267.2332 0004623 268.3381  91.6957 15.70982775 43724
STARLINK-11684 [DTC]    
1 64240U 25119H   26059.28228334  .00252680  00000+0  19005-2 0  9997
2 64240  43.0025 265.9547 0002988 279.8298  80.2232 15.70999759 43760
STARLINK-11689 [DTC]    
1 64241U 25119J   26059.27166768  .00201786  00000+0  15305-2 0  9999
2 64241  43.0001 265.8687 0002824 278.2272  81.8275 15.70957023 43765
STARLINK-11690 [DTC]    
1 64242U 25119K   26058.63052406  .00203263  00000+0  15467-2 0  9993
2 64242  43.0005 269.6589 0001689 266.4159  93.6515 15.70876706 43669
STARLINK-11694 [DTC]    
1 64243U 25119L   26058.98560422  .00221585  00000+0  16795-2 0  9996
2 64243  43.0034 268.0405 0003111 268.3157  91.7355 15.70911439 43713
STARLINK-11710 [DTC]    
1 64244U 25119M   26059.28760443  .00288822  00000+0  21477-2 0  9996
2 64244  43.0013 265.9961 0002211 313.7951  46.2734 15.71162854 43762
STARLINK-11704 [DTC]    
1 64245U 25119N   26058.87423778  .00292757  00000+0  21923-2 0  9996
2 64245  42.9994 268.0380 0001104 242.9693 117.1062 15.70983607 43706
STARLINK-34203          
1 64246U 25119P   26059.23000528  .00028025  00000+0  10235-2 0  9991
2 64246  43.0064   0.3842 0002590 249.8083 110.2490 15.27596661 42739
STARLINK-33865          
1 64247U 25119Q   26059.21458636  .00035270  00000+0  12847-2 0  9998
2 64247  43.0051   0.2664 0002692 264.3601  95.6943 15.27589119 42692
STARLINK-34234          
1 64248U 25119R   26059.24027468  .00025790  00000+0  94318-3 0  9997
2 64248  43.0026   0.4594 0002095 261.5635  98.4980 15.27588515 42727
STARLINK-34256          
1 64249U 25119S   26059.22229613  .00029816  00000+0  10886-2 0  9992
2 64249  43.0036   0.3221 0001730 285.4680  74.5981 15.27582237 42726
