[{"OBJECT_NAME":"STARLINK-11682 [DTC]","OBJECT_ID":"2025-119B","EPOCH":"2026-02-27T23:46:55.086240","MEAN_MOTION":15.70898524,"ECCENTRICITY":0.00026989,"INCLINATION":43.0021,"RA_OF_ASC_NODE":268.0881,"ARG_OF_PERICENTER":270.2492,"MEAN_ANOMALY":89.8067,"EPHEMERIS_TYPE":0,"CLASSIFICATION_TYPE":"U","NORAD_CAT_ID":64234,"ELEMENT_SET_NO":999,"REV_AT_EPOCH":4371,"BSTAR":0.0015908535,"MEAN_MOTION_DOT":0.00209432,"MEAN_MOTION_DDOT":0},{"OBJECT_NAME":"STARLINK-11675 [DTC]","OBJECT_ID":"2025-119C","EPOCH":"2026-02-28T06:38:51.663840","MEAN_MOTION":15.70907382,"ECCENTRICITY":7.457e-5,"INCLINATION":42.9998,"RA_OF_ASC_NODE":265.9151,"ARG_OF_PERICENTER":5.508,"MEAN_ANOMALY":354.5796,"EPHEMERIS_TYPE":0,"CLASSIFICATION_TYPE":"U","NORAD_CAT_ID":64235,"ELEMENT_SET_NO":999,"REV_AT_EPOCH":4376,"BSTAR":0.0020080661,"MEAN_MOTION_DOT":0.00266402,"MEAN_MOTION_DDOT":0},{"OBJECT_NAME":"STARLINK-11691 [DTC]","OBJECT_ID":"2025-119D","EPOCH":"2026-02-28T06:15:54.555840","MEAN_MOTION":15.70942257,"ECCENTRICITY":0.00026972,"INCLINATION":42.9993,"RA_OF_ASC_NODE":265.7856,"ARG_OF_PERICENTER":285.2995,"MEAN_ANOMALY":74.7575,"EPHEMERIS_TYPE":0,"CLASSIFICATION_TYPE":"U","NORAD_CAT_ID":64236,"ELEMENT_SET_NO":999,"REV_AT_EPOCH":4376,"BSTAR":0.0022315247,"MEAN_MOTION_DOT":0.00297665,"MEAN_MOTION_DDOT":0},{"OBJECT_NAME":"STARLINK-11670 [DTC]","OBJECT_ID":"2025-119E","EPOCH":"2026-02-27T23:23:59.631936","MEAN_MOTION":15.70961215,"ECCENTRICITY":0.0001995,"INCLINATION":42.999,"RA_OF_ASC_NODE":267.958,"ARG_OF_PERICENTER":268.6925,"MEAN_ANOMALY":91.3714,"EPHEMERIS_TYPE":0,"CLASSIFICATION_TYPE":"U","NORAD_CAT_ID":64237,"ELEMENT_SET_NO":999,"REV_AT_EPOCH":4371,"BSTAR":0.0025018,"MEAN_MOTION_DOT":0.0033558,"MEAN_MOTION_DDOT":0},{"OBJECT_NAME":"STARLINK-11708 [DTC]","OBJECT_ID":"2025-119F","EPOCH":"2026-02-27T23:31:37.959744","MEAN_MOTION":15.70898984,"ECCENTRICITY":0.00016272,"INCLINATION":43.0001,"RA_OF_ASC_NODE":267.9999,"ARG_OF_PERICENTER":273.1328,"MEAN_ANOMALY":86.9353,"EPHEMERIS_TYPE":0,"CLASSIFICATION_TYPE":"U","NORAD_CAT_ID":64238,"ELEMENT_SET_NO":999,"REV_AT_EPOCH":4371,"BSTAR":0.0019480989,"MEAN_MOTION_DOT":0.00258075,"MEAN_MOTION_DDOT":0},{"OBJECT_NAME":"STARLINK-11683 [DTC]","OBJECT_ID":"2025-119G","EPOCH":"2026-02-27T23:54:21.910752","MEAN_MOTION":15.70982775,"ECCENTRICITY":0.00046238,"INCLINATION":43.0024,"RA_OF_ASC_NODE":267.2332,"ARG_OF_PERICENTER":268.3381,"MEAN_ANOMALY":91.6957,"EPHEMERIS_TYPE":0,"CLASSIFICATION_TYPE":"U","NORAD_CAT_ID":64239,"ELEMENT_SET_NO":999,"REV_AT_EPOCH":4372,"BSTAR":0.0019737282,"MEAN_MOTION_DOT":0.00262618,"MEAN_MOTION_DDOT":0},{"OBJECT_NAME":"STARLINK-11684 [DTC]","OBJECT_ID":"2025-119H","EPOCH":"2026-02-28T06:46:29.280576","MEAN_MOTION":15.70999759,"ECCENTRICITY":0.00029884,"INCLINATION":43.0025,"RA_OF_ASC_NODE":265.9547,"ARG_OF_PERICENTER":279.8298,"MEAN_ANOMALY":80.2232,"EPHEMERIS_TYPE":0,"CLASSIFICATION_TYPE":"U","NORAD_CAT_ID":64240,"ELEMENT_SET_NO":999,"REV_AT_EPOCH":4376,"BSTAR":0.0019005219,"MEAN_MOTION_DOT":0.0025268,"MEAN_MOTION_DDOT":0},{"OBJECT_NAME":"STARLINK-11689 [DTC]","OBJECT_ID":"2025-119J","EPOCH":"2026-02-28T06:31:12.087552","MEAN_MOTION":15.70957023,"ECCENTRICITY":0.00028247,"INCLINATION":43.0001,"RA_OF_ASC_NODE":265.8687,"ARG_OF_PERICENTER":278.2272,"MEAN_ANOMALY":81.8275,"EPHEMERIS_TYPE":0,"CLASSIFICATION_TYPE":"U","NORAD_CAT_ID":64241,"ELEMENT_SET_NO":999,"REV_AT_EPOCH":4376,"BSTAR":0.0015305396,"MEAN_MOTION_DOT":0.00201786,"MEAN_MOTION_DDOT":0},{"OBJECT_NAME":"STARLINK-11690 [DTC]","OBJECT_ID":"2025-119K","EPOCH":"2026-02-27T15:07:57.278784","MEAN_MOTION":15.70876706,"ECCENTRICITY":0.0001689,"INCLINATION":43.0005,"RA_OF_ASC_NODE":269.6589,"ARG_OF_PERICENTER":266.4159,"MEAN_ANOMALY":93.6515,"EPHEMERIS_TYPE":0,"CLASSIFICATION_TYPE":"U","NORAD_CAT_ID":64242,"ELEMENT_SET_NO":999,"REV_AT_EPOCH":4366,"BSTAR":0.0015467489,"MEAN_MOTION_DOT":0.00203263,"MEAN_MOTION_DDOT":0},{"OBJECT_NAME":"STARLINK-11694 [DTC]","OBJECT_ID":"2025-119L","EPOCH":"2026-02-27T23:39:16.204608","MEAN_MOTION":15.70911439,"ECCENTRICITY":0.00031117,"INCLINATION":43.0034,"RA_OF_ASC_NODE":268.0405,"ARG_OF_PERICENTER":268.3157,"MEAN_ANOMALY":91.7355,"EPHEMERIS_TYPE":0,"CLASSIFICATION_TYPE":"U","NORAD_CAT_ID":64243,"ELEMENT_SET_NO":999,"REV_AT_EPOCH":4371,"BSTAR":0.0016795287,"MEAN_MOTION_DOT":0.00221585,"MEAN_MOTION_DDOT":0},{"OBJECT_NAME":"STARLINK-11710 [DTC]","OBJECT_ID":"2025-119M","EPOCH":"2026-02-28T06:54:09.022752","MEAN_MOTION":15.71162854,"ECCENTRICITY":0.00022114,"INCLINATION":43.0013,"RA_OF_ASC_NODE":265.9961,"ARG_OF_PERICENTER":313.7951,"MEAN_ANOMALY":46.2734,"EPHEMERIS_TYPE":0,"CLASSIFICATION_TYPE":"U","NORAD_CAT_ID":64244,"ELEMENT_SET_NO":999,"REV_AT_EPOCH":4376,"BSTAR":0.0021477311,"MEAN_MOTION_DOT":0.00288822,"MEAN_MOTION_DDOT":0},{"OBJECT_NAME":"STARLINK-11704 [DTC]","OBJECT_ID":"2025-119N","EPOCH":"2026-02-27T20:58:54.144192","MEAN_MOTION":15.70983607,"ECCENTRICITY":0.0001104,"INCLINATION":42.9994,"RA_OF_ASC_NODE":268.038,"ARG_OF_PERICENTER":242.9693,"MEAN_ANOMALY":117.1062,"EPHEMERIS_TYPE":0,"CLASSIFICATION_TYPE":"U","NORAD_CAT_ID":64245,"ELEMENT_SET_NO":999,"REV_AT_EPOCH":4370,"BSTAR":0.0021923,"MEAN_MOTION_DOT":0.00292757,"MEAN_MOTION_DDOT":0},{"OBJECT_NAME":"STARLINK-34203","OBJECT_ID":"2025-119P","EPOCH":"2026-02-28T05:31:12.456192","MEAN_MOTION":15.27596661,"ECCENTRICITY":0.00025906,"INCLINATION":43.0064,"RA_OF_ASC_NODE":0.3842,"ARG_OF_PERICENTER":249.8083,"MEAN_ANOMALY":110.249,"EPHEMERIS_TYPE":0,"CLASSIFICATION_TYPE":"U","NORAD_CAT_ID":64246,"ELEMENT_SET_NO":999,"REV_AT_EPOCH":4273,"BSTAR":0.0010235143,"MEAN_MOTION_DOT":0.00028025,"MEAN_MOTION_DDOT":0},{"OBJECT_NAME":"STARLINK-33865","OBJECT_ID":"2025-119Q","EPOCH":"2026-02-28T05:09:00.261504","MEAN_MOTION":15.27589119,"ECCENTRICITY":0.00026926,"INCLINATION":43.0051,"RA_OF_ASC_NODE":0.2664,"ARG_OF_PERICENTER":264.3601,"MEAN_ANOMALY":95.6943,"EPHEMERIS_TYPE":0,"CLASSIFICATION_TYPE":"U","NORAD_CAT_ID":64247,"ELEMENT_SET_NO":999,"REV_AT_EPOCH":4269,"BSTAR":0.0012846656,"MEAN_MOTION_DOT":0.0003527,"MEAN_MOTION_DDOT":0},{"OBJECT_NAME":"STARLINK-34234","OBJECT_ID":"2025-119R","EPOCH":"2026-02-28T05:45:59.732352","MEAN_MOTION":15.27588515,"ECCENTRICITY":0.00020957,"INCLINATION":43.0026,"RA_OF_ASC_NODE":0.4594,"ARG_OF_PERICENTER":261.5635,"MEAN_ANOMALY":98.498,"EPHEMERIS_TYPE":0,"CLASSIFICATION_TYPE":"U","NORAD_CAT_ID":64248,"ELEMENT_SET_NO":999,"REV_AT_EPOCH":4272,"BSTAR":0.00094318349,"MEAN_MOTION_DOT":0.0002579,"MEAN_MOTION_DDOT":0},{"OBJECT_NAME":"STARLINK-34256","OBJECT_ID":"2025-119S","EPOCH":"2026-02-28T05:20:06.385632","MEAN_MOTION":15.27582237,"ECCENTRICITY":0.00017303,"INCLINATION":43.0036,"RA_OF_ASC_NODE":0.3221,"ARG_OF_PERICENTER":285.468,"MEAN_ANOMALY":74.5981,"EPHEMERIS_TYPE":0,"CLASSIFICATION_TYPE":"U","NORAD_CAT_ID":64249,"ELEMENT_SET_NO":999,"REV_AT_EPOCH":4272,"BSTAR":0.0010885539,"MEAN_MOTION_DOT":0.00029816,"MEAN_MOTION_DDOT":0}]
